prediction:
  azimuth_start: 139
  azimuth_stop: 355
  azimuth_tca: null
  max_elevation: 30
  tca: null
  time_start: 2020-04-24 18:43:00
  time_stop: 2020-04-24 18:56:00
satellite:
  name: Delfi-C3
  noradid: '32789'
  tle:
    line1: 1 32789U 08021G   20114.58017538 +.00001111 +00000-0 +76831-4 0  9998
    line2: 2 32789 097.4241 159.2877 0013358 138.6142 221.6101 15.07616796653546
station:
  name: DopTrack
  position:
    altitude: 95
    latitude: 51.9989
    longitude: 4.3733585
tracking:
  epoch: 2020-04-24 18:43:03.139966
  fca: 145868734.43700972
  fca_error: 0.17396394832303866
  tca: 2020-04-24 18:50:16.973560
  tca_error: 0.01258628279923143
